ARIANE 40 R/B           
1 20443U 90005H   26040.18301305  .00000315  00000+0  11394-3 0  9999
2 20443  98.3147 101.6849 0008971 292.7581  67.2659 14.39851271888702
DELTA 2 R/B(1)          
1 20453U 90008B   26040.23434100  .00075522  00000+0  99598-3 0  9993
2 20453  35.6062   1.0297 0094093 353.0521   6.8907 15.52024917921706
COSMOS 2058             
1 20465U 90010A   26040.17564446  .00004664  00000+0  27677-3 0  9997
2 20465  82.4642  75.5181 0011985  76.6975 283.5590 15.11056952937934
SL-14 R/B               
1 20466U 90010B   26040.15677641  .00000480  00000+0  55182-4 0  9993
2 20466  82.5027 294.1915 0020777  37.5060 322.7600 14.83543721924259
SL-14 R/B               
1 20511U 90018B   26040.07954162  .00000434  00000+0  51495-4 0  9991
2 20511  82.5182 249.8374 0016249 181.2282 178.8895 14.82114527918346
HST                     
1 20580U 90037B   26039.77140942  .00007499  00000+0  25069-3 0  9991
2 20580  28.4663 237.2056 0001769 143.1754 216.8963 15.29016206768883
SL-16 R/B               
1 20625U 90046B   26040.27909651  .00000229  00000+0  14276-3 0  9990
2 20625  71.0004 357.5780 0014728 339.2248  20.8274 14.15006437844377
COSMOS 2084             
1 20663U 90055A   26040.29472694  .00002918  00000+0  21516-3 0  9998
2 20663  62.7897  72.4098 0021595 184.0226 176.0704 15.05466070932040
SL-6 R/B(2)             
1 20666U 90055D   26040.23897487  .00003159  00000+0  24442-3 0  9995
2 20666  62.7849 350.5899 0020492 338.8985  21.1267 15.03444987933917
SL-8 R/B                
1 20775U 90078B   26040.14162076  .00014734  00000+0  43401-3 0  9997
2 20775  82.9022 276.9649 0366967 109.6441 254.4767 14.88118565805051
SL-8 R/B                
1 21088U 91006B   26039.94382749  .00000041  00000+0  25707-4 0  9990
2 21088  82.9433 191.4172 0023634 114.7688   0.8196 13.77492104760115
OKEAN-3                 
1 21397U 91039A   26040.28325978  .00003982  00000+0  28111-3 0  9997
2 21397  82.5178   4.3543 0016510  70.2376 290.0629 15.04577172860766
COSMOS 2151             
1 21422U 91042A   26040.26643834  .00002541  00000+0  20200-3 0  9993
2 21422  82.4963 111.0945 0013303 149.9043 210.2948 14.99996315858931
SL-14 R/B               
1 21423U 91042B   26040.05902141  .00000409  00000+0  48793-4 0  9999
2 21423  82.4897 247.0366 0016512 340.1417  19.9152 14.81801623848837
ERS-1                   
1 21574U 91050A   26040.05860102  .00000360  00000+0  12985-3 0  9994
2 21574  98.7896  57.5731 0030922 287.8325  71.9489 14.39425420811616
ARIANE 40 R/B           
1 21610U 91050F   26040.10827906  .00000323  00000+0  10934-3 0  9997
2 21610  98.2074  93.4089 0003797 144.5386 215.6057 14.42872019814874
INTERCOSMOS 25          
1 21819U 91086A   26040.25636529  .00001448  00000+0  28117-3 0  9993
2 21819  82.6085 327.1899 1486776 178.1859 182.5556 12.11920357493244
SL-8 R/B                
1 21876U 92008B   26040.22959470  .00000041  00000+0  26879-4 0  9993
2 21876  82.9262 288.9507 0033859 212.5333 272.2458 13.75969681705503
SL-8 R/B                
1 21938U 92020B   26040.31680509  .00000141  00000+0  13073-3 0  9992
2 21938  82.9331 174.8210 0029267  19.5569   6.5382 13.75545351697235
USA 81                  
1 21949U 92023A   26040.29646449  .00000255  00000+0  87070-4 0  9994
2 21949  85.0120 147.8129 0002622 102.9819 257.1666 14.32357539 90720
COSMOS 2219             
1 22219U 92076A   26040.29634827 -.00000088  00000+0 -21147-4 0  9999
2 22219  71.0583  77.4274 0020309 246.0449 113.8547 14.14076468714367
SL-16 R/B               
1 22220U 92076B   26040.05295516  .00000039  00000+0  43364-4 0  9992
2 22220  70.9979 248.6972 0011464 147.5459  15.1549 14.16855811717774
COSMOS 2221             
1 22236U 92080A   26040.21321550  .00002630  00000+0  23143-3 0  9991
2 22236  82.5055 306.3535 0012913 291.8320  68.1528 14.96087806776535
SL-16 R/B               
1 22285U 92093B   26040.25940374 -.00000055  00000+0 -40248-5 0  9992
2 22285  71.0200  63.9503 0005156 323.6081  36.4690 14.15440987709138
COSMOS 2228             
1 22286U 92094A   26040.24819102  .00002095  00000+0  17893-3 0  9999
2 22286  82.5157 264.5458 0019037  41.2540 319.0117 14.97059624771802
SL-16 R/B               
1 22566U 93016B   26040.08493730 -.00000176  00000+0 -65608-4 0  9990
2 22566  71.0066 275.2634 0010325 353.0260   7.0718 14.15303599698121
COSMOS 2242             
1 22626U 93024A   26040.15151179  .00001862  00000+0  16147-3 0  9996
2 22626  82.5191 294.0123 0017619  45.1177 315.1472 14.96429420776123
SL-16 R/B               
1 22803U 93059B   26040.24437415  .00000106  00000+0  75980-4 0  9992
2 22803  70.9892  71.1144 0019493 255.6083 104.2877 14.17227788675504
ARIANE 40 R/B           
1 22830U 93061H   26040.20759196  .00000232  00000+0  10086-3 0  9999
2 22830  98.4977 109.6486 0010800  14.7975 345.3523 14.32845768690027
COSMOS 2278             
1 23087U 94023A   26040.23736015 -.00000131  00000+0 -43863-4 0  9991
2 23087  71.0500 234.6243 0006647  67.4310 292.7515 14.14363544640784
SL-16 R/B               
1 23088U 94023B   26040.29674650  .00000070  00000+0  60833-4 0  9990
2 23088  70.9997 130.5177 0004463 312.1249  47.9494 14.15003708642072
SL-16 R/B               
1 23343U 94074B   26040.11655997  .00000530  00000+0  77795-4 0  9990
2 23343  97.7147  72.0867 0005627 325.3849 101.8523 14.79373242683027
SL-16 R/B               
1 23405U 94077B   26040.28944490  .00000158  00000+0  10511-3 0  9997
2 23405  70.9815  52.2373 0004270 235.2498 124.8223 14.15557432612215
ARIANE 40+ R/B          
1 23561U 95021B   26040.18319403  .00000319  00000+0  11567-3 0  9990
2 23561  98.4557 112.0437 0006107 219.6338 195.2120 14.39751085615141
SL-16 R/B               
1 23705U 95058B   26040.01236546  .00000291  00000+0  17304-3 0  9992
2 23705  71.0190 240.4620 0012221 173.1991 186.9301 14.15492729563796
SL-16 R/B               
1 24298U 96051B   26039.98756606  .00000078  00000+0  68821-4 0  9996
2 24298  70.7565 235.9911 0017512 188.2753 171.8080 14.12407337517591
ORBVIEW 2 (SEASTAR)     
1 24883U 97037A   26040.04891719  .00000363  00000+0  14253-3 0  9991
2 24883  98.8517 203.6100 0002941 130.2230 229.9212 14.35472329504369
SL-16 R/B               
1 25400U 98043G   26039.82421925  .00000095  00000+0  58782-4 0  9995
2 25400  98.8206 352.9921 0010905  97.4076 262.8343 14.26042790434874
SL-16 R/B               
1 25407U 98045B   26039.89612837 -.00000001  00000+0  23527-4 0  9992
2 25407  71.0082 242.1259 0005375  61.7610 298.4056 14.16185171423024
ISS (ZARYA)             
1 25544U 98067A   26040.18079695  .00010658  00000+0  20455-3 0  9995
2 25544  51.6312 213.2864 0011096  78.9890 281.2346 15.48499027551910
CZ-4B R/B               
1 25732U 99025C   26040.08714822  .00000055  00000+0  47114-4 0  9998
2 25732  98.6684  85.0386 0038073  67.9698 321.8743 14.18259473384117
OKEAN-O                 
1 25860U 99039A   26040.12709676  .00000781  00000+0  10940-3 0  9993
2 25860  97.9507 100.2999 0001853  85.9893 274.1531 14.80288009430166
SL-16 R/B               
1 25861U 99039B   26040.13396139  .00000634  00000+0  87252-4 0  9999
2 25861  98.0029  99.2638 0014596 355.5528   4.5552 14.81690371432636
DELTA 2 R/B             
1 25876U 99041E   26040.19510455  .00002292  00000+0  40613-3 0  9994
2 25876  51.7652  55.0694 0502292 264.2488  90.0990 14.11722843359006
HELIOS 1B               
1 25977U 99064A   26040.26215052  .00002399  00000+0  27054-3 0  9996
2 25977  98.1721 301.6665 0002087 115.5611 244.5821 14.87579817681035
TERRA                   
1 25994U 99068A   26040.22061179  .00000539  00000+0  11908-3 0  9999
2 25994  97.9655  94.7340 0000933 268.6956 131.8010 14.60983476390921
SL-16 R/B               
1 26070U 00006B   26039.69208057 -.00000093  00000+0 -23106-4 0  9997
2 26070  71.0030 158.8077 0018385 231.1152 128.8332 14.15820675344450
TITAN 4B R/B            
1 26474U 00047B   26040.26934827  .00003755  00000+0  23950-3 0  9998
2 26474  67.9890 120.4132 0037055  70.2736 290.2404 15.09324852388629
ENVISAT                 
1 27386U 02009A   26040.32392487  .00000175  00000+0  70606-4 0  9992
2 27386  98.3680 354.6055 0001307  90.4764  28.7131 14.39026225255098
IDEFIX & ARIANE 42P R/B 
1 27422U 02021B   26040.24799679  .00000374  00000+0  15885-3 0  9990
2 27422  98.5841 339.1996 0010668 272.3390  87.6571 14.31005554239951
AQUA                    
1 27424U 02022A   26040.21196972  .00001197  00000+0  24901-3 0  9990
2 27424  98.4124   7.0701 0001485  52.7649   6.1467 14.61904988264573
CZ-4B R/B               
1 27432U 02024C   26040.13549726  .00000036  00000+0  41406-4 0  9992
2 27432  98.8903  93.6772 0051145 103.9751 280.8617 14.14542349225203
MIDORI II (ADEOS-II)    
1 27597U 02056A   26039.89151051  .00000386  00000+0  16961-3 0  9995
2 27597  98.7718 358.1801 0002139  83.3290 276.8135 14.29262956206183
H-2A R/B                
1 27601U 02056E   26040.31690010  .00000396  00000+0  15366-3 0  9992
2 27601  98.3150   1.7718 0069055 245.8268 242.6338 14.33740543210047
CZ-4B R/B               
1 28059U 03049C   26039.91342534  .00000559  00000+0  13985-3 0  9998
2 28059  98.6849  33.6968 0047457 320.6808  39.0945 14.54988062182412
CZ-2C R/B               
1 28222U 04012C   26040.11550734  .00045102  00000+0  52844-3 0  9998
2 28222  97.7306 102.7671 0015883  58.8429 301.4383 15.61253512199816
SL-16 R/B               
1 28353U 04021B   26040.10126036  .00000132  00000+0  93694-4 0  9999
2 28353  70.9998 292.4907 0002958  81.3411 278.8046 14.14590089118792
CZ-4B R/B               
1 28415U 04035C   26039.65151203  .00008328  00000+0  29757-3 0  9998
2 28415  97.3547  74.2480 0034126  72.7779 287.7192 15.28523383175477
CZ-2C R/B               
1 28480U 04046B   26040.22758256  .00000174  00000+0  80531-4 0  9997
2 28480  98.1994 316.9793 0138333 238.8373 119.9183 14.26982186104449
